CCSDS_OMM_VERS = 2.0
CREATION_DATE  = 
ORIGINATOR     = 

OBJECT_NAME    = TWILIGHT T
OBJECT_ID      = 2026-004T
CENTER_NAME    = EARTH
REF_FRAME      = TEME
TIME_SYSTEM    = UTC
MEAN_ELEMENT_THEORY = SGP/SGP4

EPOCH          = 2026-01-24T04:34:36.670944
MEAN_MOTION    = 14.87785045
ECCENTRICITY   = .00036
INCLINATION    = 97.7972
RA_OF_ASC_NODE = 25.1460
ARG_OF_PERICENTER = 240.8931
MEAN_ANOMALY   = 119.1925

EPHEMERIS_TYPE = 0
CLASSIFICATION_TYPE = U
NORAD_CAT_ID   = 67380
ELEMENT_SET_NO = 999
REV_AT_EPOCH   = 187
BSTAR          = .72973E-3
MEAN_MOTION_DOT = .6612E-4
MEAN_MOTION_DDOT = 0

CCSDS_OMM_VERS = 2.0
CREATION_DATE  = 
ORIGINATOR     = 

OBJECT_NAME    = TWILIGHT U
OBJECT_ID      = 2026-004U
CENTER_NAME    = EARTH
REF_FRAME      = TEME
TIME_SYSTEM    = UTC
MEAN_ELEMENT_THEORY = SGP/SGP4

EPOCH          = 2026-01-23T17:15:06.329664
MEAN_MOTION    = 14.87852891
ECCENTRICITY   = .00042231
INCLINATION    = 97.8008
RA_OF_ASC_NODE = 24.6888
ARG_OF_PERICENTER = 225.1950
MEAN_ANOMALY   = 134.8923

EPHEMERIS_TYPE = 0
CLASSIFICATION_TYPE = U
NORAD_CAT_ID   = 67381
ELEMENT_SET_NO = 999
REV_AT_EPOCH   = 180
BSTAR          = -.16154607E-2
MEAN_MOTION_DOT = -.14791E-3
MEAN_MOTION_DDOT = 0

CCSDS_OMM_VERS = 2.0
CREATION_DATE  = 
ORIGINATOR     = 

OBJECT_NAME    = TWILIGHT V
OBJECT_ID      = 2026-004V
CENTER_NAME    = EARTH
REF_FRAME      = TEME
TIME_SYSTEM    = UTC
MEAN_ELEMENT_THEORY = SGP/SGP4

EPOCH          = 2026-01-24T04:32:09.679488
MEAN_MOTION    = 14.87979770
ECCENTRICITY   = .000347
INCLINATION    = 97.8000
RA_OF_ASC_NODE = 25.1504
ARG_OF_PERICENTER = 223.3150
MEAN_ANOMALY   = 136.7795

EPHEMERIS_TYPE = 0
CLASSIFICATION_TYPE = U
NORAD_CAT_ID   = 67382
ELEMENT_SET_NO = 999
REV_AT_EPOCH   = 187
BSTAR          = .60008E-3
MEAN_MOTION_DOT = .5453E-4
MEAN_MOTION_DDOT = 0

CCSDS_OMM_VERS = 2.0
CREATION_DATE  = 
ORIGINATOR     = 

OBJECT_NAME    = TWILIGHT W
OBJECT_ID      = 2026-004W
CENTER_NAME    = EARTH
REF_FRAME      = TEME
TIME_SYSTEM    = UTC
MEAN_ELEMENT_THEORY = SGP/SGP4

EPOCH          = 2026-01-24T04:35:29.951232
MEAN_MOTION    = 14.87701218
ECCENTRICITY   = .0003921
INCLINATION    = 97.7976
RA_OF_ASC_NODE = 25.1458
ARG_OF_PERICENTER = 242.6899
MEAN_ANOMALY   = 117.3919

EPHEMERIS_TYPE = 0
CLASSIFICATION_TYPE = U
NORAD_CAT_ID   = 67383
ELEMENT_SET_NO = 999
REV_AT_EPOCH   = 187
BSTAR          = .63981E-3
MEAN_MOTION_DOT = .5778E-4
MEAN_MOTION_DDOT = 0

CCSDS_OMM_VERS = 2.0
CREATION_DATE  = 
ORIGINATOR     = 

OBJECT_NAME    = TWILIGHT X
OBJECT_ID      = 2026-004X
CENTER_NAME    = EARTH
REF_FRAME      = TEME
TIME_SYSTEM    = UTC
MEAN_ELEMENT_THEORY = SGP/SGP4

EPOCH          = 2026-01-24T02:54:19.985760
MEAN_MOTION    = 14.88129571
ECCENTRICITY   = .0002848
INCLINATION    = 97.7974
RA_OF_ASC_NODE = 25.0836
ARG_OF_PERICENTER = 226.4015
MEAN_ANOMALY   = 133.6965

EPHEMERIS_TYPE = 0
CLASSIFICATION_TYPE = U
NORAD_CAT_ID   = 67384
ELEMENT_SET_NO = 999
REV_AT_EPOCH   = 186
BSTAR          = .12328E-2
MEAN_MOTION_DOT = .11311E-3
MEAN_MOTION_DDOT = 0

CCSDS_OMM_VERS = 2.0
CREATION_DATE  = 
ORIGINATOR     = 

OBJECT_NAME    = TWILIGHT Y
OBJECT_ID      = 2026-004Y
CENTER_NAME    = EARTH
REF_FRAME      = TEME
TIME_SYSTEM    = UTC
MEAN_ELEMENT_THEORY = SGP/SGP4

EPOCH          = 2026-01-24T02:53:18.285792
MEAN_MOTION    = 14.88213344
ECCENTRICITY   = .0002754
INCLINATION    = 97.7985
RA_OF_ASC_NODE = 25.0852
ARG_OF_PERICENTER = 218.6605
MEAN_ANOMALY   = 141.4415

EPHEMERIS_TYPE = 0
CLASSIFICATION_TYPE = U
NORAD_CAT_ID   = 67385
ELEMENT_SET_NO = 999
REV_AT_EPOCH   = 186
BSTAR          = .11866E-2
MEAN_MOTION_DOT = .10906E-3
MEAN_MOTION_DDOT = 0

CCSDS_OMM_VERS = 2.0
CREATION_DATE  = 
ORIGINATOR     = 

OBJECT_NAME    = TWILIGHT Z
OBJECT_ID      = 2026-004Z
CENTER_NAME    = EARTH
REF_FRAME      = TEME
TIME_SYSTEM    = UTC
MEAN_ELEMENT_THEORY = SGP/SGP4

EPOCH          = 2026-01-24T02:51:27.585792
MEAN_MOTION    = 14.88291836
ECCENTRICITY   = .0001654
INCLINATION    = 97.7966
RA_OF_ASC_NODE = 25.0868
ARG_OF_PERICENTER = 215.9780
MEAN_ANOMALY   = 144.1326

EPHEMERIS_TYPE = 0
CLASSIFICATION_TYPE = U
NORAD_CAT_ID   = 67386
ELEMENT_SET_NO = 999
REV_AT_EPOCH   = 186
BSTAR          = .59005E-3
MEAN_MOTION_DOT = .5402E-4
MEAN_MOTION_DDOT = 0

CCSDS_OMM_VERS = 2.0
CREATION_DATE  = 
ORIGINATOR     = 

OBJECT_NAME    = TWILIGHT AA
OBJECT_ID      = 2026-004AA
CENTER_NAME    = EARTH
REF_FRAME      = TEME
TIME_SYSTEM    = UTC
MEAN_ELEMENT_THEORY = SGP/SGP4

EPOCH          = 2026-01-24T02:48:42.700032
MEAN_MOTION    = 14.88563564
ECCENTRICITY   = .0002778
INCLINATION    = 97.8017
RA_OF_ASC_NODE = 25.0901
ARG_OF_PERICENTER = 177.7627
MEAN_ANOMALY   = 182.3603

EPHEMERIS_TYPE = 0
CLASSIFICATION_TYPE = U
NORAD_CAT_ID   = 67387
ELEMENT_SET_NO = 999
REV_AT_EPOCH   = 186
BSTAR          = .92023E-3
MEAN_MOTION_DOT = .8516E-4
MEAN_MOTION_DDOT = 0

CCSDS_OMM_VERS = 2.0
CREATION_DATE  = 
ORIGINATOR     = 

OBJECT_NAME    = TWILIGHT AB
OBJECT_ID      = 2026-004AB
CENTER_NAME    = EARTH
REF_FRAME      = TEME
TIME_SYSTEM    = UTC
MEAN_ELEMENT_THEORY = SGP/SGP4

EPOCH          = 2026-01-24T02:47:07.865664
MEAN_MOTION    = 14.88668652
ECCENTRICITY   = .0002376
INCLINATION    = 97.8006
RA_OF_ASC_NODE = 25.0911
ARG_OF_PERICENTER = 161.1249
MEAN_ANOMALY   = 199.0057

EPHEMERIS_TYPE = 0
CLASSIFICATION_TYPE = U
NORAD_CAT_ID   = 67388
ELEMENT_SET_NO = 999
REV_AT_EPOCH   = 186
BSTAR          = .71077E-3
MEAN_MOTION_DOT = .6581E-4
MEAN_MOTION_DDOT = 0

CCSDS_OMM_VERS = 2.0
CREATION_DATE  = 
ORIGINATOR     = 

OBJECT_NAME    = TWILIGHT AC
OBJECT_ID      = 2026-004AC
CENTER_NAME    = EARTH
REF_FRAME      = TEME
TIME_SYSTEM    = UTC
MEAN_ELEMENT_THEORY = SGP/SGP4

EPOCH          = 2026-01-24T03:33:16.454304
MEAN_MOTION    = 15.16974824
ECCENTRICITY   = .000502
INCLINATION    = 97.4566
RA_OF_ASC_NODE = 25.3155
ARG_OF_PERICENTER = 110.0237
MEAN_ANOMALY   = 250.1538

EPHEMERIS_TYPE = 0
CLASSIFICATION_TYPE = U
NORAD_CAT_ID   = 67389
ELEMENT_SET_NO = 999
REV_AT_EPOCH   = 190
BSTAR          = .51242E-3
MEAN_MOTION_DOT = .10061E-3
MEAN_MOTION_DDOT = 0

CCSDS_OMM_VERS = 2.0
CREATION_DATE  = 
ORIGINATOR     = 

OBJECT_NAME    = TWILIGHT AD
OBJECT_ID      = 2026-004AD
CENTER_NAME    = EARTH
REF_FRAME      = TEME
TIME_SYSTEM    = UTC
MEAN_ELEMENT_THEORY = SGP/SGP4

EPOCH          = 2026-01-24T03:32:36.425184
MEAN_MOTION    = 15.17003252
ECCENTRICITY   = .0005155
INCLINATION    = 97.4567
RA_OF_ASC_NODE = 25.3171
ARG_OF_PERICENTER = 108.6852
MEAN_ANOMALY   = 251.4942

EPHEMERIS_TYPE = 0
CLASSIFICATION_TYPE = U
NORAD_CAT_ID   = 67390
ELEMENT_SET_NO = 999
REV_AT_EPOCH   = 190
BSTAR          = .60566E-3
MEAN_MOTION_DOT = .11916E-3
MEAN_MOTION_DDOT = 0

CCSDS_OMM_VERS = 2.0
CREATION_DATE  = 
ORIGINATOR     = 

OBJECT_NAME    = TWILIGHT AE
OBJECT_ID      = 2026-004AE
CENTER_NAME    = EARTH
REF_FRAME      = TEME
TIME_SYSTEM    = UTC
MEAN_ELEMENT_THEORY = SGP/SGP4

EPOCH          = 2026-01-23T22:45:19.617408
MEAN_MOTION    = 15.17181244
ECCENTRICITY   = .0006808
INCLINATION    = 97.4516
RA_OF_ASC_NODE = 25.1163
ARG_OF_PERICENTER = 105.7911
MEAN_ANOMALY   = 254.4073

EPHEMERIS_TYPE = 0
CLASSIFICATION_TYPE = U
NORAD_CAT_ID   = 67391
ELEMENT_SET_NO = 999
REV_AT_EPOCH   = 187
BSTAR          = .48076E-3
MEAN_MOTION_DOT = .9493E-4
MEAN_MOTION_DDOT = 0

