TWILIGHT T              
1 67380U 26004T   26024.19070221  .00006612  00000+0  72973-3 0  9997
2 67380  97.7972  25.1460 0003600 240.8931 119.1925 14.87785045  1874
TWILIGHT U              
1 67381U 26004U   26023.71882326 -.00014791  00000+0 -16155-2 0  9990
2 67381  97.8008  24.6888 0004223 225.1950 134.8923 14.87852891  1802
TWILIGHT V              
1 67382U 26004V   26024.18900092  .00005453  00000+0  60008-3 0  9994
2 67382  97.8000  25.1504 0003470 223.3150 136.7795 14.87979770  1872
TWILIGHT W              
1 67383U 26004W   26024.19131888  .00005778  00000+0  63981-3 0  9998
2 67383  97.7976  25.1458 0003921 242.6899 117.3919 14.87701218  1870
TWILIGHT X              
1 67384U 26004X   26024.12106465  .00011311  00000+0  12328-2 0  9993
2 67384  97.7974  25.0836 0002848 226.4015 133.6965 14.88129571  1863
TWILIGHT Y              
1 67385U 26004Y   26024.12035053  .00010906  00000+0  11866-2 0  9993
2 67385  97.7985  25.0852 0002754 218.6605 141.4415 14.88213344  1867
TWILIGHT Z              
1 67386U 26004Z   26024.11906928  .00005402  00000+0  59005-3 0  9994
2 67386  97.7966  25.0868 0001654 215.9780 144.1326 14.88291836  1869
TWILIGHT AA             
1 67387U 26004AA  26024.11716088  .00008516  00000+0  92023-3 0  9997
2 67387  97.8017  25.0901 0002778 177.7627 182.3603 14.88563564  1861
TWILIGHT AB             
1 67388U 26004AB  26024.11606326  .00006581  00000+0  71077-3 0  9997
2 67388  97.8006  25.0911 0002376 161.1249 199.0057 14.88668652  1864
TWILIGHT AC             
1 67389U 26004AC  26024.14810711  .00010061  00000+0  51242-3 0  9996
2 67389  97.4566  25.3155 0005020 110.0237 250.1538 15.16974824  1905
TWILIGHT AD             
1 67390U 26004AD  26024.14764381  .00011916  00000+0  60566-3 0  9998
2 67390  97.4567  25.3171 0005155 108.6852 251.4942 15.17003252  1903
TWILIGHT AE             
1 67391U 26004AE  26023.94814372  .00009493  00000+0  48076-3 0  9991
2 67391  97.4516  25.1163 0006808 105.7911 254.4073 15.17181244  1879
